CCSDS_OMM_VERS = 2.0
CREATION_DATE  = 
ORIGINATOR     = 

OBJECT_NAME    = IDEFIX & ARIANE 42P R/B
OBJECT_ID      = 2002-021B
CENTER_NAME    = EARTH
REF_FRAME      = TEME
TIME_SYSTEM    = UTC
MEAN_ELEMENT_THEORY = SGP/SGP4

EPOCH          = 2026-01-16T19:47:01.811328
MEAN_MOTION    = 14.30979767
ECCENTRICITY   = .00116462
INCLINATION    = 98.5821
RA_OF_ASC_NODE = 316.0672
ARG_OF_PERICENTER = 345.8679
MEAN_ANOMALY   = 14.2176

EPHEMERIS_TYPE = 0
CLASSIFICATION_TYPE = U
NORAD_CAT_ID   = 27422
ELEMENT_SET_NO = 999
REV_AT_EPOCH   = 23660
BSTAR          = .82542478E-4
MEAN_MOTION_DOT = .173E-5
MEAN_MOTION_DDOT = 0

CCSDS_OMM_VERS = 2.0
CREATION_DATE  = 
ORIGINATOR     = 

OBJECT_NAME    = AQUA
OBJECT_ID      = 2002-022A
CENTER_NAME    = EARTH
REF_FRAME      = TEME
TIME_SYSTEM    = UTC
MEAN_ELEMENT_THEORY = SGP/SGP4

EPOCH          = 2026-01-16T22:39:09.427968
MEAN_MOTION    = 14.61825008
ECCENTRICITY   = .00020078
INCLINATION    = 98.4084
RA_OF_ASC_NODE = 343.4039
ARG_OF_PERICENTER = 75.8785
MEAN_ANOMALY   = 1.7009

EPHEMERIS_TYPE = 0
CLASSIFICATION_TYPE = U
NORAD_CAT_ID   = 27424
ELEMENT_SET_NO = 999
REV_AT_EPOCH   = 26117
BSTAR          = .1716717E-3
MEAN_MOTION_DOT = .808E-5
MEAN_MOTION_DDOT = 0

CCSDS_OMM_VERS = 2.0
CREATION_DATE  = 
ORIGINATOR     = 

OBJECT_NAME    = CZ-4B R/B
OBJECT_ID      = 2002-024C
CENTER_NAME    = EARTH
REF_FRAME      = TEME
TIME_SYSTEM    = UTC
MEAN_ELEMENT_THEORY = SGP/SGP4

EPOCH          = 2026-01-16T21:26:12.661440
MEAN_MOTION    = 14.14536019
ECCENTRICITY   = .00503983
INCLINATION    = 98.8946
RA_OF_ASC_NODE = 70.5333
ARG_OF_PERICENTER = 169.0909
MEAN_ANOMALY   = 4.0070

EPHEMERIS_TYPE = 0
CLASSIFICATION_TYPE = U
NORAD_CAT_ID   = 27432
ELEMENT_SET_NO = 999
REV_AT_EPOCH   = 22191
BSTAR          = .40514308E-4
MEAN_MOTION_DOT = .34E-6
MEAN_MOTION_DDOT = 0

CCSDS_OMM_VERS = 2.0
CREATION_DATE  = 
ORIGINATOR     = 

OBJECT_NAME    = MIDORI II (ADEOS-II)
OBJECT_ID      = 2002-056A
CENTER_NAME    = EARTH
REF_FRAME      = TEME
TIME_SYSTEM    = UTC
MEAN_ELEMENT_THEORY = SGP/SGP4

EPOCH          = 2026-01-16T22:18:19.694304
MEAN_MOTION    = 14.29236353
ECCENTRICITY   = .00017608
INCLINATION    = 98.7685
RA_OF_ASC_NODE = 335.0799
ARG_OF_PERICENTER = 115.8337
MEAN_ANOMALY   = 244.3026

EPHEMERIS_TYPE = 0
CLASSIFICATION_TYPE = U
NORAD_CAT_ID   = 27597
ELEMENT_SET_NO = 999
REV_AT_EPOCH   = 20290
BSTAR          = .10834804E-3
MEAN_MOTION_DOT = .23E-5
MEAN_MOTION_DDOT = 0

CCSDS_OMM_VERS = 2.0
CREATION_DATE  = 
ORIGINATOR     = 

OBJECT_NAME    = H-2A R/B
OBJECT_ID      = 2002-056E
CENTER_NAME    = EARTH
REF_FRAME      = TEME
TIME_SYSTEM    = UTC
MEAN_ELEMENT_THEORY = SGP/SGP4

EPOCH          = 2026-01-16T22:13:06.020832
MEAN_MOTION    = 14.33712796
ECCENTRICITY   = .0069513
INCLINATION    = 98.3112
RA_OF_ASC_NODE = 339.2918
ARG_OF_PERICENTER = 316.6822
MEAN_ANOMALY   = 109.9866

EPHEMERIS_TYPE = 0
CLASSIFICATION_TYPE = U
NORAD_CAT_ID   = 27601
ELEMENT_SET_NO = 999
REV_AT_EPOCH   = 20669
BSTAR          = .11478358E-3
MEAN_MOTION_DOT = .285E-5
MEAN_MOTION_DDOT = 0

CCSDS_OMM_VERS = 2.0
CREATION_DATE  = 
ORIGINATOR     = 

OBJECT_NAME    = CZ-4B R/B
OBJECT_ID      = 2003-049C
CENTER_NAME    = EARTH
REF_FRAME      = TEME
TIME_SYSTEM    = UTC
MEAN_ELEMENT_THEORY = SGP/SGP4

EPOCH          = 2026-01-16T22:39:53.660448
MEAN_MOTION    = 14.54950309
ECCENTRICITY   = .00488431
INCLINATION    = 98.6817
RA_OF_ASC_NODE = 9.8445
ARG_OF_PERICENTER = 30.8204
MEAN_ANOMALY   = 329.5843

EPHEMERIS_TYPE = 0
CLASSIFICATION_TYPE = U
NORAD_CAT_ID   = 28059
ELEMENT_SET_NO = 999
REV_AT_EPOCH   = 17907
BSTAR          = .10330615E-3
MEAN_MOTION_DOT = .4E-5
MEAN_MOTION_DDOT = 0

CCSDS_OMM_VERS = 2.0
CREATION_DATE  = 
ORIGINATOR     = 

OBJECT_NAME    = CZ-2C R/B
OBJECT_ID      = 2004-012C
CENTER_NAME    = EARTH
REF_FRAME      = TEME
TIME_SYSTEM    = UTC
MEAN_ELEMENT_THEORY = SGP/SGP4

EPOCH          = 2026-01-16T21:27:18.499968
MEAN_MOTION    = 15.58543595
ECCENTRICITY   = .00171113
INCLINATION    = 97.7362
RA_OF_ASC_NODE = 77.4894
ARG_OF_PERICENTER = 139.4577
MEAN_ANOMALY   = 220.7956

EPHEMERIS_TYPE = 0
CLASSIFICATION_TYPE = U
NORAD_CAT_ID   = 28222
ELEMENT_SET_NO = 999
REV_AT_EPOCH   = 19619
BSTAR          = .56053821E-3
MEAN_MOTION_DOT = .43188E-3
MEAN_MOTION_DDOT = 0

CCSDS_OMM_VERS = 2.0
CREATION_DATE  = 
ORIGINATOR     = 

OBJECT_NAME    = SL-16 R/B
OBJECT_ID      = 2004-021B
CENTER_NAME    = EARTH
REF_FRAME      = TEME
TIME_SYSTEM    = UTC
MEAN_ELEMENT_THEORY = SGP/SGP4

EPOCH          = 2026-01-16T23:28:30.864864
MEAN_MOTION    = 14.14592722
ECCENTRICITY   = .00029377
INCLINATION    = 71.0030
RA_OF_ASC_NODE = 341.0135
ARG_OF_PERICENTER = 140.3368
MEAN_ANOMALY   = 219.7970

EPHEMERIS_TYPE = 0
CLASSIFICATION_TYPE = U
NORAD_CAT_ID   = 28353
ELEMENT_SET_NO = 999
REV_AT_EPOCH   = 11552
BSTAR          = -.22210679E-4
MEAN_MOTION_DOT = -.9E-6
MEAN_MOTION_DDOT = 0

CCSDS_OMM_VERS = 2.0
CREATION_DATE  = 
ORIGINATOR     = 

OBJECT_NAME    = CZ-4B R/B
OBJECT_ID      = 2004-035C
CENTER_NAME    = EARTH
REF_FRAME      = TEME
TIME_SYSTEM    = UTC
MEAN_ELEMENT_THEORY = SGP/SGP4

EPOCH          = 2026-01-16T16:04:18.190272
MEAN_MOTION    = 15.28012937
ECCENTRICITY   = .00336335
INCLINATION    = 97.3573
RA_OF_ASC_NODE = 51.5562
ARG_OF_PERICENTER = 150.6700
MEAN_ANOMALY   = 209.6437

EPHEMERIS_TYPE = 0
CLASSIFICATION_TYPE = U
NORAD_CAT_ID   = 28415
ELEMENT_SET_NO = 999
REV_AT_EPOCH   = 17196
BSTAR          = .2090553E-3
MEAN_MOTION_DOT = .5732E-4
MEAN_MOTION_DDOT = 0

CCSDS_OMM_VERS = 2.0
CREATION_DATE  = 
ORIGINATOR     = 

OBJECT_NAME    = CZ-2C R/B
OBJECT_ID      = 2004-046B
CENTER_NAME    = EARTH
REF_FRAME      = TEME
TIME_SYSTEM    = UTC
MEAN_ELEMENT_THEORY = SGP/SGP4

EPOCH          = 2026-01-16T17:42:30.645216
MEAN_MOTION    = 14.26966246
ECCENTRICITY   = .01385871
INCLINATION    = 98.2002
RA_OF_ASC_NODE = 294.9448
ARG_OF_PERICENTER = 308.8835
MEAN_ANOMALY   = 50.0050

EPHEMERIS_TYPE = 0
CLASSIFICATION_TYPE = U
NORAD_CAT_ID   = 28480
ELEMENT_SET_NO = 999
REV_AT_EPOCH   = 10109
BSTAR          = .56951735E-4
MEAN_MOTION_DOT = .111E-5
MEAN_MOTION_DDOT = 0

CCSDS_OMM_VERS = 2.0
CREATION_DATE  = 
ORIGINATOR     = 

OBJECT_NAME    = ARIANE 5 R/B
OBJECT_ID      = 2004-049H
CENTER_NAME    = EARTH
REF_FRAME      = TEME
TIME_SYSTEM    = UTC
MEAN_ELEMENT_THEORY = SGP/SGP4

EPOCH          = 2026-01-16T23:00:39.786912
MEAN_MOTION    = 14.85124559
ECCENTRICITY   = .00848196
INCLINATION    = 98.2548
RA_OF_ASC_NODE = 183.5102
ARG_OF_PERICENTER = 158.0182
MEAN_ANOMALY   = 202.4705

EPHEMERIS_TYPE = 0
CLASSIFICATION_TYPE = U
NORAD_CAT_ID   = 28499
ELEMENT_SET_NO = 999
REV_AT_EPOCH   = 13811
BSTAR          = .11799204E-3
MEAN_MOTION_DOT = .1012E-4
MEAN_MOTION_DDOT = 0

CCSDS_OMM_VERS = 2.0
CREATION_DATE  = 
ORIGINATOR     = 

OBJECT_NAME    = CZ-2D R/B
OBJECT_ID      = 2005-024B
CENTER_NAME    = EARTH
REF_FRAME      = TEME
TIME_SYSTEM    = UTC
MEAN_ELEMENT_THEORY = SGP/SGP4

EPOCH          = 2026-01-17T00:01:11.203968
MEAN_MOTION    = 15.55562924
ECCENTRICITY   = .0004478
INCLINATION    = 97.3617
RA_OF_ASC_NODE = 30.4320
ARG_OF_PERICENTER = 182.4385
MEAN_ANOMALY   = 177.6849

EPHEMERIS_TYPE = 0
CLASSIFICATION_TYPE = U
NORAD_CAT_ID   = 28738
ELEMENT_SET_NO = 999
REV_AT_EPOCH   = 13173
BSTAR          = .48720772E-3
MEAN_MOTION_DOT = .33342E-3
MEAN_MOTION_DDOT = 0

