IDEFIX & ARIANE 42P R/B 
1 27422U 02021B   26016.82432652  .00000173  00000+0  82542-4 0  9994
2 27422  98.5821 316.0672 0011646 345.8679  14.2176 14.30979767236608
AQUA                    
1 27424U 02022A   26016.94385912  .00000808  00000+0  17167-3 0  9991
2 27424  98.4084 343.4039 0002007  75.8785   1.7009 14.61825008261178
CZ-4B R/B               
1 27432U 02024C   26016.89320210  .00000034  00000+0  40514-4 0  9990
2 27432  98.8946  70.5333 0050398 169.0909   4.0070 14.14536019221914
MIDORI II (ADEOS-II)    
1 27597U 02056A   26016.92939461  .00000230  00000+0  10835-3 0  9995
2 27597  98.7685 335.0799 0001760 115.8337 244.3026 14.29236353202905
H-2A R/B                
1 27601U 02056E   26016.92576413  .00000285  00000+0  11478-3 0  9999
2 27601  98.3112 339.2918 0069513 316.6822 109.9866 14.33712796206694
CZ-4B R/B               
1 28059U 03049C   26016.94437107  .00000400  00000+0  10331-3 0  9994
2 28059  98.6817   9.8445 0048843  30.8204 329.5843 14.54950309179077
CZ-2C R/B               
1 28222U 04012C   26016.89396412  .00043188  00000+0  56054-3 0  9996
2 28222  97.7362  77.4894 0017111 139.4577 220.7956 15.58543595196195
SL-16 R/B               
1 28353U 04021B   26016.97813501 -.00000090  00000+0 -22211-4 0  9999
2 28353  71.0030 341.0135 0002937 140.3368 219.7970 14.14592722115523
CZ-4B R/B               
1 28415U 04035C   26016.66965498  .00005732  00000+0  20906-3 0  9996
2 28415  97.3573  51.5562 0033633 150.6700 209.6437 15.28012937171960
CZ-2C R/B               
1 28480U 04046B   26016.73785469  .00000111  00000+0  56952-4 0  9993
2 28480  98.2002 294.9448 0138587 308.8835  50.0050 14.26966246101099
ARIANE 5 R/B            
1 28499U 04049H   26016.95879383  .00001012  00000+0  11799-3 0  9999
2 28499  98.2548 183.5102 0084819 158.0182 202.4705 14.85124559138113
CZ-2D R/B               
1 28738U 05024B   26017.00082412  .00033342  00000+0  48721-3 0  9991
2 28738  97.3617  30.4320 0004478 182.4385 177.6849 15.55562924131730
